[
    {
        "Altitude(m)": 610405.2743077698,
        "Argument of Periapsis(deg)": 0.0,
        "Eccentricity": 0.0,
        "Inclination(deg)": 60.0,
        "Latitude(deg)": 52.111137157085594,
        "Longitude(deg)": -72.52259863936747,
        "Mean Anomaly(deg)": -245.4545,
        "RAAN(deg)": 255.0,
        "Satellite Name": "Test1 1129",
        "Satellite Number": 1129,
        "Semi-Major Axis(m)": 6980739.136638005,
        "Time(s)": 0
    },
    {
        "Altitude(m)": 610321.8472013813,
        "Argument of Periapsis(deg)": 0.00010418945913296404,
        "Eccentricity": 0.0,
        "Inclination(deg)": 60.0,
        "Latitude(deg)": 51.74585230903623,
        "Longitude(deg)": -71.75370687205445,
        "Mean Anomaly(deg)": -244.83439385453818,
        "RAAN(deg)": 254.99957995086027,
        "Satellite Name": "Test1 1129",
        "Satellite Number": 1129,
        "Semi-Major Axis(m)": 6980739.136638005,
        "Time(s)": 10
    }
]